[Satellite]
VERSION=1.1
NAME=TELKOM 2
NICKNAME=TELKOM 2
TLE1=1 28902U 05046A   15052.72050716 -.00000387  00000-0  00000+0 0  9995
TLE2=2 28902   0.0254 211.5876 0001501 141.8171 175.2599  1.00270900 33872
